{"type": "FeatureCollection", "features": [ {"type": "Feature", "properties": {"norad_id": 66493, "name": "STARLINK-35597", "group": "last-30-days", "lat": 42.9542570108763, "lon": -123.38079376270588, "alt_km": 409.45876331926047, "timestamp": "2025-12-09T11:33:53.574926+00:00", "meta": {"OBJECT_NAME": "STARLINK-35597", "OBJECT_ID": "2025-263J", "EPOCH": "2025-12-09T04:00:01.998720", "MEAN_MOTION": 15.50739066, "ECCENTRICITY": 0.0001619, "INCLINATION": 43.0006, "RA_OF_ASC_NODE": 146.0243, "ARG_OF_PERICENTER": 265.2577, "MEAN_ANOMALY": 224.9861, "EPHEMERIS_TYPE": 0, "CLASSIFICATION_TYPE": "U", "NORAD_CAT_ID": 66493, "ELEMENT_SET_NO": 999, "REV_AT_EPOCH": 506, "BSTAR": -0.0053837, "MEAN_MOTION_DOT": -0.00305907, "MEAN_MOTION_DDOT": 0}, "tle": {"line1": "1 66493U 25263J   25343.16668980 -.00305907  00000+0 -53837-2 0  9990", "line2": "2 66493  43.0006 146.0243 0001619 265.2577 224.9861 15.50739066  5069"}}, "geometry": {"type": "Point", "coordinates": [-123.38079376270588, 42.9542570108763]}}, {"type": "Feature", "properties": {"norad_id": 66494, "name": "STARLINK-35689", "group": "last-30-days", "lat": 42.85073106351286, "lon": -131.2557136572847, "alt_km": 409.5425554565163, "timestamp": "2025-12-09T11:33:53.574936+00:00", "meta": {"OBJECT_NAME": "STARLINK-35689", "OBJECT_ID": "2025-263K", "EPOCH": "2025-12-09T04:00:01.998720", "MEAN_MOTION": 15.50636616, "ECCENTRICITY": 0.0001726, "INCLINATION": 43.0007, "RA_OF_ASC_NODE": 146.0398, "ARG_OF_PERICENTER": 265.4942, "MEAN_ANOMALY": 219.0372, "EPHEMERIS_TYPE": 0, "CLASSIFICATION_TYPE": "U", "NORAD_CAT_ID": 66494, "ELEMENT_SET_NO": 999, "REV_AT_EPOCH": 506, "BSTAR": -0.0027241, "MEAN_MOTION_DOT": -0.00157313, "MEAN_MOTION_DDOT": 0}, "tle": {"line1": "1 66494U 25263K   25343.16668980 -.00157313  00000+0 -27241-2 0  9997", "line2": "2 66494  43.0007 146.0398 0001726 265.4942 219.0372 15.50636616  5068"}}, "geometry": {"type": "Point", "coordinates": [-131.2557136572847, 42.85073106351286]}}, {"type": "Feature", "properties": {"norad_id": 66495, "name": "STARLINK-35832", "group": "last-30-days", "lat": 42.87050040171633, "lon": -120.8062982649408, "alt_km": 409.4970521579344, "timestamp": "2025-12-09T11:33:53.574946+00:00", "meta": {"OBJECT_NAME": "STARLINK-35832", "OBJECT_ID": "2025-263L", "EPOCH": "2025-12-09T04:00:01.998720", "MEAN_MOTION": 15.50610569, "ECCENTRICITY": 0.0001735, "INCLINATION": 43.0007, "RA_OF_ASC_NODE": 146.0189, "ARG_OF_PERICENTER": 280.1298, "MEAN_ANOMALY": 212.0676, "EPHEMERIS_TYPE": 0, "CLASSIFICATION_TYPE": "U", "NORAD_CAT_ID": 66495, "ELEMENT_SET_NO": 999, "REV_AT_EPOCH": 506, "BSTAR": -0.001753, "MEAN_MOTION_DOT": -0.00101969, "MEAN_MOTION_DDOT": 0}, "tle": {"line1": "1 66495U 25263L   25343.16668980 -.00101969  00000+0 -17530-2 0  9994", "line2": "2 66495  43.0007 146.0189 0001735 280.1298 212.0676 15.50610569  5064"}}, "geometry": {"type": "Point", "coordinates": [-120.8062982649408, 42.87050040171633]}}, {"type": "Feature", "properties": {"norad_id": 66496, "name": "STARLINK-35909", "group": "last-30-days", "lat": 42.72615240112705, "lon": -118.19786122948103, "alt_km": 409.5053037402349, "timestamp": "2025-12-09T11:33:53.574956+00:00", "meta": {"OBJECT_NAME": "STARLINK-35909", "OBJECT_ID": "2025-263M", "EPOCH": "2025-12-09T04:00:01.998720", "MEAN_MOTION": 15.50659724, "ECCENTRICITY": 0.0001729, "INCLINATION": 43.0008, "RA_OF_ASC_NODE": 146.014, "ARG_OF_PERICENTER": 267.9078, "MEAN_ANOMALY": 226.182, "EPHEMERIS_TYPE": 0, "CLASSIFICATION_TYPE": "U", "NORAD_CAT_ID": 66496, "ELEMENT_SET_NO": 999, "REV_AT_EPOCH": 506, "BSTAR": -0.0028479, "MEAN_MOTION_DOT": -0.00164432, "MEAN_MOTION_DDOT": 0}, "tle": {"line1": "1 66496U 25263M   25343.16668980 -.00164432  00000+0 -28479-2 0  9993", "line2": "2 66496  43.0008 146.0140 0001729 267.9078 226.1820 15.50659724  5068"}}, "geometry": {"type": "Point", "coordinates": [-118.19786122948103, 42.72615240112705]}}, {"type": "Feature", "properties": {"norad_id": 66497, "name": "STARLINK-35899", "group": "last-30-days", "lat": 42.523479081722954, "lon": -115.61635539772567, "alt_km": 409.6343880535196, "timestamp": "2025-12-09T11:33:53.574966+00:00", "meta": {"OBJECT_NAME": "STARLINK-35899", "OBJECT_ID": "2025-263N", "EPOCH": "2025-12-09T04:00:01.998720", "MEAN_MOTION": 15.50615086, "ECCENTRICITY": 0.0001846, "INCLINATION": 43.0006, "RA_OF_ASC_NODE": 146.0086, "ARG_OF_PERICENTER": 277.2834, "MEAN_ANOMALY": 218.7446, "EPHEMERIS_TYPE": 0, "CLASSIFICATION_TYPE": "U", "NORAD_CAT_ID": 66497, "ELEMENT_SET_NO": 999, "REV_AT_EPOCH": 506, "BSTAR": -0.001836, "MEAN_MOTION_DOT": -0.00106739, "MEAN_MOTION_DDOT": 0}, "tle": {"line1": "1 66497U 25263N   25343.16668980 -.00106739  00000+0 -18360-2 0  9998", "line2": "2 66497  43.0006 146.0086 0001846 277.2834 218.7446 15.50615086  5064"}}, "geometry": {"type": "Point", "coordinates": [-115.61635539772567, 42.523479081722954]}}, {"type": "Feature", "properties": {"norad_id": 66498, "name": "STARLINK-35907", "group": "last-30-days", "lat": 42.33372784179363, "lon": -113.69491386784908, "alt_km": 412.31319886817073, "timestamp": "2025-12-09T11:33:53.574977+00:00", "meta": {"OBJECT_NAME": "STARLINK-35907", "OBJECT_ID": "2025-263P", "EPOCH": "2025-12-09T04:00:01.998720", "MEAN_MOTION": 15.50942506, "ECCENTRICITY": 9.14e-05, "INCLINATION": 43.0004, "RA_OF_ASC_NODE": 146.0034, "ARG_OF_PERICENTER": 252.3636, "MEAN_ANOMALY": 245.5319, "EPHEMERIS_TYPE": 0, "CLASSIFICATION_TYPE": "U", "NORAD_CAT_ID": 66498, "ELEMENT_SET_NO": 999, "REV_AT_EPOCH": 506, "BSTAR": -0.040129, "MEAN_MOTION_DOT": -0.0211574, "MEAN_MOTION_DDOT": 0}, "tle": {"line1": "1 66498U 25263P   25343.16668980 -.02115740  00000+0 -40129-1 0  9990", "line2": "2 66498  43.0004 146.0034 0000914 252.3636 245.5319 15.50942506  5062"}}, "geometry": {"type": "Point", "coordinates": [-113.69491386784908, 42.33372784179363]}}, {"type": "Feature", "properties": {"norad_id": 66499, "name": "STARLINK-35816", "group": "last-30-days", "lat": 41.568591692302846, "lon": -107.96993712260843, "alt_km": 409.50463333011885, "timestamp": "2025-12-09T11:33:53.574991+00:00", "meta": {"OBJECT_NAME": "STARLINK-35816", "OBJECT_ID": "2025-263Q", "EPOCH": "2025-12-09T04:00:01.998720", "MEAN_MOTION": 15.50683112, "ECCENTRICITY": 0.0001461, "INCLINATION": 43.0005, "RA_OF_ASC_NODE": 145.9951, "ARG_OF_PERICENTER": 270.0217, "MEAN_ANOMALY": 231.728, "EPHEMERIS_TYPE": 0, "CLASSIFICATION_TYPE": "U", "NORAD_CAT_ID": 66499, "ELEMENT_SET_NO": 999, "REV_AT_EPOCH": 506, "BSTAR": -0.0035969, "MEAN_MOTION_DOT": -0.00206651, "MEAN_MOTION_DDOT": 0}, "tle": {"line1": "1 66499U 25263Q   25343.16668980 -.00206651  00000+0 -35969-2 0  9998", "line2": "2 66499  43.0005 145.9951 0001461 270.0217 231.7280 15.50683112  5069"}}, "geometry": {"type": "Point", "coordinates": [-107.96993712260843, 41.568591692302846]}}, {"type": "Feature", "properties": {"norad_id": 66500, "name": "STARLINK-35894", "group": "last-30-days", "lat": 34.624809192029936, "lon": -167.92008783290927, "alt_km": 410.03127040355685, "timestamp": "2025-12-09T11:33:53.575003+00:00", "meta": {"OBJECT_NAME": "STARLINK-35894", "OBJECT_ID": "2025-263R", "EPOCH": "2025-12-09T04:00:01.998720", "MEAN_MOTION": 15.50642718, "ECCENTRICITY": 0.0001086, "INCLINATION": 43.0005, "RA_OF_ASC_NODE": 146.109, "ARG_OF_PERICENTER": 284.7622, "MEAN_ANOMALY": 170.227, "EPHEMERIS_TYPE": 0, "CLASSIFICATION_TYPE": "U", "NORAD_CAT_ID": 66500, "ELEMENT_SET_NO": 999, "REV_AT_EPOCH": 506, "BSTAR": -0.0020643, "MEAN_MOTION_DOT": -0.00119878, "MEAN_MOTION_DDOT": 0}, "tle": {"line1": "1 66500U 25263R   25343.16668980 -.00119878  00000+0 -20643-2 0  9998", "line2": "2 66500  43.0005 146.1090 0001086 284.7622 170.2270 15.50642718  5067"}}, "geometry": {"type": "Point", "coordinates": [-167.92008783290927, 34.624809192029936]}}, {"type": "Feature", "properties": {"norad_id": 66501, "name": "STARLINK-35897", "group": "last-30-days", "lat": 41.14043349299301, "lon": -105.48341942510349, "alt_km": 409.88749228213874, "timestamp": "2025-12-09T11:33:53.575013+00:00", "meta": {"OBJECT_NAME": "STARLINK-35897", "OBJECT_ID": "2025-263S", "EPOCH": "2025-12-09T04:00:01.998720", "MEAN_MOTION": 15.50633433, "ECCENTRICITY": 0.0001869, "INCLINATION": 43.0008, "RA_OF_ASC_NODE": 145.9906, "ARG_OF_PERICENTER": 280.4672, "MEAN_ANOMALY": 223.2296, "EPHEMERIS_TYPE": 0, "CLASSIFICATION_TYPE": "U", "NORAD_CAT_ID": 66501, "ELEMENT_SET_NO": 999, "REV_AT_EPOCH": 506, "BSTAR": -0.0025258, "MEAN_MOTION_DOT": -0.00146078, "MEAN_MOTION_DDOT": 0}, "tle": {"line1": "1 66501U 25263S   25343.16668980 -.00146078  00000+0 -25258-2 0  9998", "line2": "2 66501  43.0008 145.9906 0001869 280.4672 223.2296 15.50633433  5062"}}, "geometry": {"type": "Point", "coordinates": [-105.48341942510349, 41.14043349299301]}}, {"type": "Feature", "properties": {"norad_id": 66502, "name": "STARLINK-35922", "group": "last-30-days", "lat": 39.546380108089636, "lon": -98.2528358431719, "alt_km": 410.02581018916317, "timestamp": "2025-12-09T11:33:53.575023+00:00", "meta": {"OBJECT_NAME": "STARLINK-35922", "OBJECT_ID": "2025-263T", "EPOCH": "2025-12-09T04:00:01.998720", "MEAN_MOTION": 15.50620475, "ECCENTRICITY": 0.0001793, "INCLINATION": 43.0005, "RA_OF_ASC_NODE": 145.9746, "ARG_OF_PERICENTER": 275.3309, "MEAN_ANOMALY": 234.1119, "EPHEMERIS_TYPE": 0, "CLASSIFICATION_TYPE": "U", "NORAD_CAT_ID": 66502, "ELEMENT_SET_NO": 999, "REV_AT_EPOCH": 506, "BSTAR": -0.0019804, "MEAN_MOTION_DOT": -0.00115007, "MEAN_MOTION_DDOT": 0}, "tle": {"line1": "1 66502U 25263T   25343.16668980 -.00115007  00000+0 -19804-2 0  9997", "line2": "2 66502  43.0005 145.9746 0001793 275.3309 234.1119 15.50620475  5065"}}, "geometry": {"type": "Point", "coordinates": [-98.2528358431719, 39.546380108089636]}}]}